#Pass ID: 20250118_022302_FENGYUN 3E
#Satellite: FENGYUN 3E
#Configuration: FENGYUN 3E
#Start time: 2025-01-18 02:23:07.848023

#LorettStation: 1.0.0 05.05.2024
#Station: Regia
#Location: 37.494653 lon 55.929028 lat
#TLE: 1 49008U 21062A   25017.37211740  .00000051  00000+0  44597-4 0  9990
#TLE: 2 49008  98.7397  21.8588 0002454 117.6689 242.4736 14.19833280183381

#Time	Az	El	Level	SNR
#Closed at: 2025-01-18 02:23:02.849467